{
  "type": "FeatureCollection",
  "features": [
    { "type": "Feature", "properties": { "name": "二环路", "type": "快速路", "length": 32.7, "lanes": 6, "id": 1 }, "geometry": { "type": "LineString", "coordinates": [[116.38, 39.93], [116.42, 39.93], [116.44, 39.91], [116.44, 39.89], [116.42, 39.87], [116.38, 39.87], [116.35, 39.89], [116.35, 39.91], [116.38, 39.93]] } },
    { "type": "Feature", "properties": { "name": "三环路", "type": "快速路", "length": 48.3, "lanes": 8, "id": 2 }, "geometry": { "type": "LineString", "coordinates": [[116.33, 39.95], [116.45, 39.95], [116.48, 39.91], [116.48, 39.86], [116.43, 39.83], [116.35, 39.83], [116.30, 39.86], [116.30, 39.91], [116.33, 39.95]] } },
    { "type": "Feature", "properties": { "name": "四环路", "type": "快速路", "length": 65.2, "lanes": 8, "id": 3 }, "geometry": { "type": "LineString", "coordinates": [[116.28, 39.97], [116.50, 39.97], [116.53, 39.91], [116.53, 39.83], [116.45, 39.78], [116.30, 39.78], [116.25, 39.83], [116.25, 39.91], [116.28, 39.97]] } },
    { "type": "Feature", "properties": { "name": "五环路", "type": "高速", "length": 98.6, "lanes": 6, "id": 4 }, "geometry": { "type": "LineString", "coordinates": [[116.20, 40.00], [116.55, 40.00], [116.60, 39.91], [116.58, 39.78], [116.45, 39.72], [116.25, 39.72], [116.18, 39.78], [116.18, 39.91], [116.20, 40.00]] } },
    { "type": "Feature", "properties": { "name": "长安街", "type": "主干道", "length": 42.0, "lanes": 10, "id": 5 }, "geometry": { "type": "LineString", "coordinates": [[116.25, 39.908], [116.31, 39.908], [116.35, 39.908], [116.40, 39.908], [116.46, 39.908], [116.50, 39.908]] } },
    { "type": "Feature", "properties": { "name": "平安大街", "type": "主干道", "length": 7.5, "lanes": 6, "id": 6 }, "geometry": { "type": "LineString", "coordinates": [[116.35, 39.935], [116.38, 39.935], [116.42, 39.935], [116.44, 39.935]] } },
    { "type": "Feature", "properties": { "name": "中关村大街", "type": "主干道", "length": 8.2, "lanes": 8, "id": 7 }, "geometry": { "type": "LineString", "coordinates": [[116.315, 39.975], [116.315, 39.955], [116.315, 39.935], [116.315, 39.915]] } },
    { "type": "Feature", "properties": { "name": "京通快速", "type": "高速", "length": 18.5, "lanes": 6, "id": 8 }, "geometry": { "type": "LineString", "coordinates": [[116.46, 39.91], [116.50, 39.91], [116.55, 39.91], [116.62, 39.91], [116.68, 39.91]] } },
    { "type": "Feature", "properties": { "name": "京津高速", "type": "高速", "length": 147.0, "lanes": 8, "id": 9 }, "geometry": { "type": "LineString", "coordinates": [[116.46, 39.88], [116.52, 39.85], [116.58, 39.82], [116.65, 39.78]] } },
    { "type": "Feature", "properties": { "name": "京藏高速", "type": "高速", "length": 68.4, "lanes": 6, "id": 10 }, "geometry": { "type": "LineString", "coordinates": [[116.34, 39.95], [116.34, 39.98], [116.34, 40.02], [116.34, 40.06]] } }
  ]
}