{
  "type": "FeatureCollection",
  "features": [
    {
      "type": "Feature",
      "id": 1,
      "properties": { "name": "天安门广场", "category": "景点" },
      "geometry": { "type": "Point", "coordinates": [116.3975, 39.9087] }
    },
    {
      "type": "Feature",
      "id": 2,
      "properties": { "name": "故宫博物院", "category": "景点" },
      "geometry": { "type": "Point", "coordinates": [116.4039, 39.9158] }
    },
    {
      "type": "Feature",
      "id": 3,
      "properties": { "name": "清华大学", "category": "教育" },
      "geometry": { "type": "Point", "coordinates": [116.3261, 40.0028] }
    },
    {
      "type": "Feature",
      "id": 4,
      "properties": { "name": "北京大学", "category": "教育" },
      "geometry": { "type": "Point", "coordinates": [116.3103, 39.9923] }
    },
    {
      "type": "Feature",
      "id": 5,
      "properties": { "name": "颐和园", "category": "景点" },
      "geometry": { "type": "Point", "coordinates": [116.2756, 39.9997] }
    },
    {
      "type": "Feature",
      "id": 6,
      "properties": { "name": "北京南站", "category": "交通" },
      "geometry": { "type": "Point", "coordinates": [116.3795, 39.8643] }
    },
    {
      "type": "Feature",
      "id": 7,
      "properties": { "name": "北京西站", "category": "交通" },
      "geometry": { "type": "Point", "coordinates": [116.3220, 39.8949] }
    },
    {
      "type": "Feature",
      "id": 8,
      "properties": { "name": "奥林匹克公园", "category": "景点" },
      "geometry": { "type": "Point", "coordinates": [116.3925, 40.0105] }
    },
    {
      "type": "Feature",
      "id": 9,
      "properties": { "name": "国贸CBD", "category": "商业" },
      "geometry": { "type": "Point", "coordinates": [116.4615, 39.9093] }
    },
    {
      "type": "Feature",
      "id": 10,
      "properties": { "name": "中关村", "category": "科技" },
      "geometry": { "type": "Point", "coordinates": [116.3168, 39.9836] }
    }
  ]
}