{
  "type": "FeatureCollection",
  "features": [
    {
      "type": "Feature",
      "properties": { "name": "东城区", "population": 708000, "area": 41.84, "density": 16921, "gdp": 3200, "code": "110101" },
      "geometry": { "type": "Polygon", "coordinates": [[[116.395, 39.930], [116.430, 39.930], [116.445, 39.915], [116.445, 39.900], [116.420, 39.890], [116.395, 39.890], [116.380, 39.900], [116.380, 39.915], [116.395, 39.930]]] }
    },
    {
      "type": "Feature",
      "properties": { "name": "西城区", "population": 1106000, "area": 50.70, "density": 21815, "gdp": 4500, "code": "110102" },
      "geometry": { "type": "Polygon", "coordinates": [[[116.350, 39.930], [116.380, 39.930], [116.380, 39.915], [116.370, 39.900], [116.350, 39.890], [116.335, 39.890], [116.330, 39.900], [116.335, 39.915], [116.350, 39.930]]] }
    },
    {
      "type": "Feature",
      "properties": { "name": "朝阳区", "population": 3452000, "area": 470.80, "density": 7332, "gdp": 7800, "code": "110105" },
      "geometry": { "type": "Polygon", "coordinates": [[[116.420, 39.930], [116.480, 39.930], [116.500, 39.915], [116.500, 39.890], [116.480, 39.870], [116.445, 39.860], [116.420, 39.870], [116.410, 39.890], [116.410, 39.915], [116.420, 39.930]]] }
    },
    {
      "type": "Feature",
      "properties": { "name": "海淀区", "population": 3134000, "area": 431.00, "density": 7271, "gdp": 9500, "code": "110108" },
      "geometry": { "type": "Polygon", "coordinates": [[[116.280, 39.970], [116.350, 39.970], [116.350, 39.930], [116.350, 39.890], [116.280, 39.890], [116.260, 39.910], [116.260, 39.950], [116.280, 39.970]]] }
    },
    {
      "type": "Feature",
      "properties": { "name": "丰台区", "population": 2019000, "area": 306.00, "density": 6598, "gdp": 2100, "code": "110106" },
      "geometry": { "type": "Polygon", "coordinates": [[[116.280, 39.890], [116.350, 39.890], [116.350, 39.860], [116.335, 39.830], [116.300, 39.820], [116.270, 39.830], [116.260, 39.850], [116.260, 39.870], [116.280, 39.890]]] }
    },
    {
      "type": "Feature",
      "properties": { "name": "石景山区", "population": 568000, "area": 86.00, "density": 6605, "gdp": 900, "code": "110107" },
      "geometry": { "type": "Polygon", "coordinates": [[[116.200, 39.910], [116.260, 39.910], [116.260, 39.890], [116.230, 39.870], [116.200, 39.870], [116.180, 39.880], [116.180, 39.900], [116.200, 39.910]]] }
    },
    {
      "type": "Feature",
      "properties": { "name": "通州区", "population": 1840000, "area": 906.00, "density": 2031, "gdp": 1200, "code": "110112" },
      "geometry": { "type": "Polygon", "coordinates": [[[116.550, 39.900], [116.680, 39.900], [116.700, 39.860], [116.680, 39.820], [116.600, 39.790], [116.550, 39.800], [116.530, 39.830], [116.530, 39.870], [116.550, 39.900]]] }
    },
    {
      "type": "Feature",
      "properties": { "name": "大兴区", "population": 1994000, "area": 1036.00, "density": 1925, "gdp": 1100, "code": "110115" },
      "geometry": { "type": "Polygon", "coordinates": [[[116.300, 39.820], [116.400, 39.820], [116.430, 39.780], [116.430, 39.730], [116.350, 39.710], [116.280, 39.730], [116.270, 39.770], [116.300, 39.820]]] }
    },
    {
      "type": "Feature",
      "properties": { "name": "昌平区", "population": 2269000, "area": 1352.00, "density": 1678, "gdp": 1300, "code": "110114" },
      "geometry": { "type": "Polygon", "coordinates": [[[116.200, 40.080], [116.350, 40.080], [116.380, 40.020], [116.350, 39.970], [116.280, 39.970], [116.180, 40.000], [116.170, 40.040], [116.200, 40.080]]] }
    },
    {
      "type": "Feature",
      "properties": { "name": "顺义区", "population": 1326000, "area": 1021.00, "density": 1299, "gdp": 2100, "code": "110113" },
      "geometry": { "type": "Polygon", "coordinates": [[[116.550, 40.100], [116.700, 40.100], [116.750, 40.050], [116.700, 40.000], [116.620, 39.950], [116.550, 39.960], [116.530, 40.010], [116.530, 40.060], [116.550, 40.100]]] }
    }
  ]
}