{
  "type": "FeatureCollection",
  "features": [
    { "type": "Feature", "properties": { "name": "天安门", "category": "景点", "visitors": 15000000, "rating": 5, "id": 1 }, "geometry": { "type": "Point", "coordinates": [116.3975, 39.9087] } },
    { "type": "Feature", "properties": { "name": "故宫", "category": "景点", "visitors": 19000000, "rating": 5, "id": 2 }, "geometry": { "type": "Point", "coordinates": [116.4039, 39.9158] } },
    { "type": "Feature", "properties": { "name": "天坛", "category": "景点", "visitors": 10000000, "rating": 5, "id": 3 }, "geometry": { "type": "Point", "coordinates": [116.4106, 39.8819] } },
    { "type": "Feature", "properties": { "name": "颐和园", "category": "景点", "visitors": 12000000, "rating": 5, "id": 4 }, "geometry": { "type": "Point", "coordinates": [116.2784, 39.9943] } },
    { "type": "Feature", "properties": { "name": "圆明园", "category": "景点", "visitors": 6000000, "rating": 4, "id": 5 }, "geometry": { "type": "Point", "coordinates": [116.3045, 40.0067] } },
    { "type": "Feature", "properties": { "name": "北京大学", "category": "教育", "visitors": 50000, "rating": 5, "id": 6 }, "geometry": { "type": "Point", "coordinates": [116.3103, 39.9920] } },
    { "type": "Feature", "properties": { "name": "清华大学", "category": "教育", "visitors": 50000, "rating": 5, "id": 7 }, "geometry": { "type": "Point", "coordinates": [116.3319, 40.0035] } },
    { "type": "Feature", "properties": { "name": "鸟巢", "category": "体育", "visitors": 3000000, "rating": 4, "id": 8 }, "geometry": { "type": "Point", "coordinates": [116.3969, 39.9930] } },
    { "type": "Feature", "properties": { "name": "水立方", "category": "体育", "visitors": 2000000, "rating": 4, "id": 9 }, "geometry": { "type": "Point", "coordinates": [116.3933, 39.9935] } },
    { "type": "Feature", "properties": { "name": "798艺术区", "category": "文化", "visitors": 5000000, "rating": 4, "id": 10 }, "geometry": { "type": "Point", "coordinates": [116.4983, 39.9842] } },
    { "type": "Feature", "properties": { "name": "王府井", "category": "商业", "visitors": 20000000, "rating": 4, "id": 11 }, "geometry": { "type": "Point", "coordinates": [116.4171, 39.9147] } },
    { "type": "Feature", "properties": { "name": "三里屯", "category": "商业", "visitors": 15000000, "rating": 4, "id": 12 }, "geometry": { "type": "Point", "coordinates": [116.4589, 39.9353] } },
    { "type": "Feature", "properties": { "name": "北京南站", "category": "交通", "visitors": 50000000, "rating": 3, "id": 13 }, "geometry": { "type": "Point", "coordinates": [116.3793, 39.8648] } },
    { "type": "Feature", "properties": { "name": "北京西站", "category": "交通", "visitors": 60000000, "rating": 3, "id": 14 }, "geometry": { "type": "Point", "coordinates": [116.3278, 39.8943] } },
    { "type": "Feature", "properties": { "name": "什刹海", "category": "景点", "visitors": 8000000, "rating": 4, "id": 15 }, "geometry": { "type": "Point", "coordinates": [116.3896, 39.9375] } },
    { "type": "Feature", "properties": { "name": "雍和宫", "category": "景点", "visitors": 5000000, "rating": 4, "id": 16 }, "geometry": { "type": "Point", "coordinates": [116.4224, 39.9495] } },
    { "type": "Feature", "properties": { "name": "国贸CBD", "category": "商业", "visitors": 10000000, "rating": 4, "id": 17 }, "geometry": { "type": "Point", "coordinates": [116.4655, 39.9105] } },
    { "type": "Feature", "properties": { "name": "望京SOHO", "category": "商业", "visitors": 5000000, "rating": 4, "id": 18 }, "geometry": { "type": "Point", "coordinates": [116.4864, 39.9978] } },
    { "type": "Feature", "properties": { "name": "北京动物园", "category": "景点", "visitors": 7000000, "rating": 4, "id": 19 }, "geometry": { "type": "Point", "coordinates": [116.3416, 39.9414] } },
    { "type": "Feature", "properties": { "name": "香山公园", "category": "景点", "visitors": 4000000, "rating": 4, "id": 20 }, "geometry": { "type": "Point", "coordinates": [116.1956, 39.9967] } }
  ]
}